ONEWEB-0211             
1 48767U 21045A   26201.10754995 -.00000020  00000+0 -86969-4 0  9990
2 48767  87.8983 252.5160 0002711 102.0400 258.1035 13.16197206248774
ONEWEB-0223             
1 48768U 21045B   26201.12609570  .00000165  00000+0  40297-3 0  9992
2 48768  87.8983 252.6286 0002389 105.9688 254.1706 13.15548450248733
ONEWEB-0230             
1 48769U 21045C   26201.09757358 -.00000082  00000+0 -25269-3 0  9999
2 48769  87.8979 252.6458 0001895  95.5432 264.5915 13.15548835248994
ONEWEB-0237             
1 48770U 21045D   26201.08647845 -.00000144  00000+0 -41715-3 0  9992
2 48770  87.8976 252.6491 0002335  93.0067 267.1331 13.15548840248714
ONEWEB-0235             
1 48771U 21045E   26201.13716349  .00000264  00000+0  66783-3 0  9998
2 48771  87.8988 252.6282 0002279 107.2857 252.8523 13.15550817248719
ONEWEB-0242             
1 48772U 21045F   26201.13084878  .00000162  00000+0  39590-3 0  9997
2 48772  87.8988 252.6269 0001967 103.1696 256.9654 13.15548890248756
ONEWEB-0241             
1 48773U 21045G   26201.11820859  .00000079  00000+0  17519-3 0  9997
2 48773  87.8974 252.6441 0002383 103.2130 256.9267 13.15540172248666
ONEWEB-0243             
1 48774U 21045H   26201.14984129  .00000007  00000+0 -15081-4 0  9997
2 48774  87.8980 252.6503 0001920 112.5186 247.6148 13.15550975248693
ONEWEB-0222             
1 48775U 21045J   26201.13322228 -.00003886  00000+0 -10357-1 0  9990
2 48775  87.8985 252.6239 0002123  97.6096 262.5276 13.15568745248731
ONEWEB-0244             
1 48776U 21045K   26201.08331386 -.00000019  00000+0 -85406-4 0  9995
2 48776  87.8994 252.6300 0002081 100.3966 259.7399 13.15548492249295
ONEWEB-0247             
1 48777U 21045L   26201.15618339 -.00000022  00000+0 -92989-4 0  9998
2 48777  87.8982 252.6434 0002243 118.8626 241.2729 13.15547045248743
ONEWEB-0245             
1 48778U 21045M   26201.15143106  .00000083  00000+0  18532-3 0  9990
2 48778  87.8990 252.6265 0002216  97.5281 262.6101 13.15549952248712
ONEWEB-0229             
1 48779U 21045N   26201.14669463  .00000090  00000+0  20374-3 0  9994
2 48779  87.8987 252.6252 0001983 100.4340 259.7014 13.15548466248747
ONEWEB-0228             
1 48780U 21045P   26201.10403920 -.00000086  00000+0 -26314-3 0  9993
2 48780  87.8995 252.6291 0002106  98.9636 261.1733 13.15549566248655
ONEWEB-0232             
1 48781U 21045Q   26201.15462111  .00000062  00000+0  13126-3 0  9995
2 48781  87.8988 252.6176 0002188  97.5984 262.5395 13.15547998248983
ONEWEB-0231             
1 48782U 21045R   26201.13243627 -.00000186  00000+0 -52749-3 0  9996
2 48782  87.8983 252.6341 0002356 101.1139 259.0257 13.15549089248671
ONEWEB-0234             
1 48783U 21045S   26201.09426920 -.00000107  00000+0 -31908-3 0  9998
2 48783  87.8993 252.6241 0002643  82.0190 278.1240 13.15547581248809
ONEWEB-0238             
1 48784U 21045T   26201.09452415 -.00000116  00000+0 -34301-3 0  9997
2 48784  87.8999 252.6216 0002326  88.1679 271.9718 13.15548581248706
ONEWEB-0240             
1 48785U 21045U   26201.11578434  .00000068  00000+0  14658-3 0  9998
2 48785  87.8988 252.6255 0002369 100.4485 259.6912 13.15549203248732
ONEWEB-0246             
1 48786U 21045V   26201.11025061  .00003299  00000+0  87293-2 0  9995
2 48786  87.8992 252.6303 0002061 106.2739 253.8618 13.15531232248605
ONEWEB-0210             
1 48787U 21045W   26201.16095332 -.00000069  00000+0 -21762-3 0  9993
2 48787  87.8989 252.6174 0001989 121.6560 238.4765 13.15548599248650
ONEWEB-0214             
1 48788U 21045X   26201.09360424 -.00000071  00000+0 -22221-3 0  9997
2 48788  87.8990 252.6281 0001745 101.9018 258.2308 13.15547079248612
ONEWEB-0221             
1 48789U 21045Y   26201.10074390 -.00000042  00000+0 -14591-3 0  9993
2 48789  87.8989 252.6350 0002171 100.9291 259.2084 13.15548755248708
ONEWEB-0213             
1 48790U 21045Z   26201.08964847 -.00000063  00000+0 -20087-3 0  9997
2 48790  87.8990 252.6403 0002127 104.7391 255.3975 13.15549083248762
ONEWEB-0212             
1 48791U 21045AA  26201.14272621  .00000136  00000+0  32663-3 0  9999
2 48791  87.8989 252.6238 0002052  96.5065 263.6299 13.15547725248762
ONEWEB-0227             
1 48792U 21045AB  26201.14194021  .00000171  00000+0  41940-3 0  9994
2 48792  87.8988 252.6241 0002086  98.6411 261.4955 13.15548927248716
ONEWEB-0226             
1 48793U 21045AC  26201.13560230  .00000136  00000+0  32696-3 0  9992
2 48793  87.8985 252.6298 0002010 104.3289 255.8065 13.15548406248688
ONEWEB-0224             
1 48794U 21045AD  26201.09915801 -.00000013  00000+0 -68386-4 0  9998
2 48794  87.8978 252.6693 0002938  93.3481 266.7986 13.15549069248601
ONEWEB-0233             
1 48795U 21045AE  26201.10375764 -.00000040  00000+0 -13908-3 0  9998
2 48795  87.8976 252.6757 0002297 101.9848 258.1540 13.15551096248628
ONEWEB-0190             
1 48796U 21045AF  26201.09123147 -.00000074  00000+0 -22953-3 0  9990
2 48796  87.8985 252.6415 0002390 112.8254 247.3129 13.15548992248697
