OBJECT_NAME,OBJECT_ID,EPOCH,MEAN_MOTION,ECCENTRICITY,INCLINATION,RA_OF_ASC_NODE,ARG_OF_PERICENTER,MEAN_ANOMALY,EPHEMERIS_TYPE,CLASSIFICATION_TYPE,NORAD_CAT_ID,ELEMENT_SET_NO,REV_AT_EPOCH,BSTAR,MEAN_MOTION_DOT,MEAN_MOTION_DDOT
ONEWEB-0211,2021-045A,2026-07-20T02:34:52.315680,13.16197206,.00027118,87.8983,252.5160,102.0400,258.1035,0,U,48767,999,24877,-.86969185E-4,-.2E-6,0
ONEWEB-0223,2021-045B,2026-07-20T03:01:34.668480,13.15548450,.00023899,87.8983,252.6286,105.9688,254.1706,0,U,48768,999,24873,.40297312E-3,.165E-5,0
ONEWEB-0230,2021-045C,2026-07-20T02:20:30.357312,13.15548835,.00018956,87.8979,252.6458,95.5432,264.5915,0,U,48769,999,24899,-.2526876E-3,-.82E-6,0
ONEWEB-0237,2021-045D,2026-07-20T02:04:31.738080,13.15548840,.00023357,87.8976,252.6491,93.0067,267.1331,0,U,48770,999,24871,-.41715072E-3,-.144E-5,0
ONEWEB-0235,2021-045E,2026-07-20T03:17:30.925536,13.15550817,.00022797,87.8988,252.6282,107.2857,252.8523,0,U,48771,999,24871,.66782969E-3,.264E-5,0
ONEWEB-0242,2021-045F,2026-07-20T03:08:25.334592,13.15548890,.00019673,87.8988,252.6269,103.1696,256.9654,0,U,48772,999,24875,.39590253E-3,.162E-5,0
ONEWEB-0241,2021-045G,2026-07-20T02:50:13.222176,13.15540172,.00023839,87.8974,252.6441,103.2130,256.9267,0,U,48773,999,24866,.17518967E-3,.79E-6,0
ONEWEB-0243,2021-045H,2026-07-20T03:35:46.287456,13.15550975,.00019206,87.8980,252.6503,112.5186,247.6148,0,U,48774,999,24869,-.1508139E-4,.7E-7,0
ONEWEB-0222,2021-045J,2026-07-20T03:11:50.404992,13.15568745,.00021231,87.8985,252.6239,97.6096,262.5276,0,U,48775,999,24873,-.10357352E-1,-.3886E-4,0
ONEWEB-0244,2021-045K,2026-07-20T01:59:58.317504,13.15548492,.00020818,87.8994,252.6300,100.3966,259.7399,0,U,48776,999,24929,-.8540591E-4,-.19E-6,0
ONEWEB-0247,2021-045L,2026-07-20T03:44:54.244896,13.15547045,.00022435,87.8982,252.6434,118.8626,241.2729,0,U,48777,999,24874,-.92988508E-4,-.22E-6,0
ONEWEB-0245,2021-045M,2026-07-20T03:38:03.643584,13.15549952,.00022167,87.8990,252.6265,97.5281,262.6101,0,U,48778,999,24871,.1853205E-3,.83E-6,0
ONEWEB-0229,2021-045N,2026-07-20T03:31:14.416032,13.15548466,.00019832,87.8987,252.6252,100.4340,259.7014,0,U,48779,999,24874,.20373967E-3,.9E-6,0
ONEWEB-0228,2021-045P,2026-07-20T02:29:48.986880,13.15549566,.00021069,87.8995,252.6291,98.9636,261.1733,0,U,48780,999,24865,-.26314187E-3,-.86E-6,0
ONEWEB-0232,2021-045Q,2026-07-20T03:42:39.263904,13.15547998,.00021888,87.8988,252.6176,97.5984,262.5395,0,U,48781,999,24898,.13126014E-3,.62E-6,0
ONEWEB-0231,2021-045R,2026-07-20T03:10:42.493728,13.15549089,.00023568,87.8983,252.6341,101.1139,259.0257,0,U,48782,999,24867,-.5274945E-3,-.186E-5,0
ONEWEB-0234,2021-045S,2026-07-20T02:15:44.858880,13.15547581,.0002643,87.8993,252.6241,82.0190,278.1240,0,U,48783,999,24880,-.31908228E-3,-.107E-5,0
ONEWEB-0238,2021-045T,2026-07-20T02:16:06.886560,13.15548581,.00023264,87.8999,252.6216,88.1679,271.9718,0,U,48784,999,24870,-.34300625E-3,-.116E-5,0
ONEWEB-0240,2021-045U,2026-07-20T02:46:43.766976,13.15549203,.00023696,87.8988,252.6255,100.4485,259.6912,0,U,48785,999,24873,.14658037E-3,.68E-6,0
ONEWEB-0246,2021-045V,2026-07-20T02:38:45.652704,13.15531232,.00020618,87.8992,252.6303,106.2739,253.8618,0,U,48786,999,24860,.87293036E-2,.3299E-4,0
ONEWEB-0210,2021-045W,2026-07-20T03:51:46.366848,13.15548599,.00019895,87.8989,252.6174,121.6560,238.4765,0,U,48787,999,24865,-.21762079E-3,-.69E-6,0
ONEWEB-0214,2021-045X,2026-07-20T02:14:47.406336,13.15547079,.00017459,87.8990,252.6281,101.9018,258.2308,0,U,48788,999,24861,-.22221003E-3,-.71E-6,0
ONEWEB-0221,2021-045Y,2026-07-20T02:25:04.272960,13.15548755,.00021714,87.8989,252.6350,100.9291,259.2084,0,U,48789,999,24870,-.1459087E-3,-.42E-6,0
ONEWEB-0213,2021-045Z,2026-07-20T02:09:05.627808,13.15549083,.0002127,87.8990,252.6403,104.7391,255.3975,0,U,48790,999,24876,-.20086591E-3,-.63E-6,0
ONEWEB-0212,2021-045AA,2026-07-20T03:25:31.544544,13.15547725,.00020525,87.8989,252.6238,96.5065,263.6299,0,U,48791,999,24876,.32662594E-3,.136E-5,0
ONEWEB-0227,2021-045AB,2026-07-20T03:24:23.634144,13.15548927,.00020869,87.8988,252.6241,98.6411,261.4955,0,U,48792,999,24871,.41940475E-3,.171E-5,0
ONEWEB-0226,2021-045AC,2026-07-20T03:15:16.038720,13.15548406,.00020101,87.8985,252.6298,104.3289,255.8065,0,U,48793,999,24868,.32696318E-3,.136E-5,0
ONEWEB-0224,2021-045AD,2026-07-20T02:22:47.252064,13.15549069,.00029386,87.8978,252.6693,93.3481,266.7986,0,U,48794,999,24860,-.68386011E-4,-.13E-6,0
ONEWEB-0233,2021-045AE,2026-07-20T02:29:24.660096,13.15551096,.00022979,87.8976,252.6757,101.9848,258.1540,0,U,48795,999,24862,-.13908177E-3,-.4E-6,0
ONEWEB-0190,2021-045AF,2026-07-20T02:11:22.399008,13.15548992,.00023908,87.8985,252.6415,112.8254,247.3129,0,U,48796,999,24869,-.22953418E-3,-.74E-6,0
